OBJECT_NAME,OBJECT_ID,EPOCH,MEAN_MOTION,ECCENTRICITY,INCLINATION,RA_OF_ASC_NODE,ARG_OF_PERICENTER,MEAN_ANOMALY,EPHEMERIS_TYPE,CLASSIFICATION_TYPE,NORAD_CAT_ID,ELEMENT_SET_NO,REV_AT_EPOCH,BSTAR,MEAN_MOTION_DOT,MEAN_MOTION_DDOT
ONEWEB-0548,2023-043E,2026-07-14T02:28:24.081600,13.16594455,.0001589,87.9078,223.4232,92.2587,267.8726,0,U,56050,999,16250,-.19275E-3,-.61E-6,0
ONEWEB-0549,2023-043F,2026-07-14T04:33:49.428288,13.21826871,.0002461,87.9235,238.6060,101.1843,258.9568,0,U,56051,999,16179,-.28499E-4,.1E-7,0
ONEWEB-0550,2023-043G,2026-07-14T04:14:27.655008,13.21826690,.0001869,87.9237,238.6067,99.3019,260.8327,0,U,56052,999,16179,.20824E-4,.22E-6,0
ONEWEB-0551,2023-043H,2026-07-14T03:44:03.058944,13.15547320,.0002372,87.8985,253.8528,103.5183,256.6211,0,U,56053,999,15994,.39894E-3,.163E-5,0
ONEWEB-0552,2023-043J,2026-07-14T04:07:10.432992,13.21826222,.0002088,87.9229,238.6128,100.7617,259.3752,0,U,56054,999,16179,.54459E-4,.36E-6,0
ONEWEB-0553,2023-043K,2026-07-14T03:51:37.872864,13.16593419,.0002064,87.9082,223.4161,83.5853,276.5513,0,U,56055,999,16252,-.27514E-4,.2E-7,0
ONEWEB-0554,2023-043L,2026-07-14T03:33:23.743008,13.16594029,.0001519,87.9081,223.4271,95.4113,264.7192,0,U,56056,999,16250,.1663E-4,.19E-6,0
ONEWEB-0555,2023-043M,2026-07-14T02:38:40.009056,13.16593743,.0002223,87.9079,223.4239,78.0756,282.0624,0,U,56057,999,16250,-.87585E-4,-.21E-6,0
ONEWEB-0557,2023-043N,2026-07-14T02:59:11.224608,13.16593746,.0001374,87.9080,223.4308,56.5692,303.5570,0,U,56058,999,16250,-.32203E-4,.1E-7,0
ONEWEB-0558,2023-043P,2026-07-14T03:57:29.655648,13.21826402,.0002491,87.9236,238.6097,93.8273,266.3146,0,U,56059,999,16180,.30445E-3,.139E-5,0
ONEWEB-0559,2023-043Q,2026-07-14T03:40:32.149632,13.21824564,.0002256,87.9236,238.6078,99.5092,260.6297,0,U,56060,999,16181,.3301E-3,.149E-5,0
ONEWEB-0566,2023-043R,2026-07-14T01:41:50.761824,13.21824315,.0002384,87.9232,238.6226,102.4731,257.6669,0,U,56061,999,16178,.25374E-3,.118E-5,0
ONEWEB-0568,2023-043S,2026-07-14T03:24:16.137216,13.16595933,.0002136,87.9080,223.4168,88.1904,271.9472,0,U,56062,999,16252,.11261E-3,.56E-6,0
ONEWEB-0574,2023-043T,2026-07-14T03:21:10.874016,13.21825715,.0001881,87.9242,238.6127,92.4639,267.6711,0,U,56063,999,16183,.11224E-3,.59E-6,0
ONEWEB-0575,2023-043U,2026-07-14T03:15:08.482176,13.16595606,.0001792,87.9076,223.4147,85.8631,274.2705,0,U,56064,999,16251,.2076E-3,.92E-6,0
ONEWEB-0576,2023-043V,2026-07-14T02:47:46.413024,13.16595342,.0001889,87.9083,223.4266,88.3955,271.7393,0,U,56065,999,16250,-.60261E-4,-.1E-6,0
ONEWEB-0577,2023-043W,2026-07-14T02:56:54.388608,13.16594973,.0001328,87.9081,223.4230,80.9229,279.2052,0,U,56066,999,16253,-.53767E-4,-.8E-7,0
ONEWEB-0578,2023-043X,2026-07-14T03:01:48.021600,13.21826404,.000213,87.9241,238.6115,88.0583,272.0795,0,U,56067,999,16179,.2103E-3,.1E-5,0
ONEWEB-0579,2023-043Y,2026-07-14T04:38:39.504192,13.21850539,.0002034,87.9245,238.5964,102.2472,257.8890,0,U,56068,999,16181,-.97921E-2,-.4031E-4,0
ONEWEB-0581,2023-043Z,2026-07-14T03:06:01.416384,13.16594625,.0001492,87.9074,223.4327,90.0081,270.1221,0,U,56069,999,16250,.22703E-4,.22E-6,0
ONEWEB-0609,2023-043AA,2026-07-14T04:21:41.601600,13.15548234,.0002174,87.8987,253.8324,96.3786,263.7592,0,U,56070,999,15998,-.19531E-4,.5E-7,0
ONEWEB-0613,2023-043AB,2026-07-14T04:18:16.581312,13.15547593,.0002197,87.8985,253.8453,106.0037,254.1335,0,U,56071,999,15998,-.18559E-3,-.57E-6,0
ONEWEB-0630,2023-043AC,2026-07-14T04:11:25.483200,13.15550158,.0002191,87.8994,253.8193,104.4398,255.6976,0,U,56072,999,15997,.17686E-3,.79E-6,0
ONEWEB-0632,2023-043AD,2026-07-14T04:04:35.580864,13.15548391,.0001888,87.8988,253.8373,98.7567,261.3777,0,U,56073,999,15997,.25612E-3,.109E-5,0
ONEWEB-0633,2023-043AE,2026-07-14T03:55:27.930144,13.15548465,.0002358,87.8996,253.8160,105.5946,254.5444,0,U,56074,999,15995,.36848E-3,.152E-5,0
ONEWEB-0634,2023-043AF,2026-07-14T03:34:55.856640,13.15549040,.0002333,87.8985,253.8573,89.6137,270.5261,0,U,56075,999,15994,.648E-3,.257E-5,0
ONEWEB-0635,2023-043AG,2026-07-14T03:28:04.908000,13.15548679,.0001813,87.8994,253.8230,95.6649,264.4688,0,U,56076,999,15997,.52255E-3,.21E-5,0
ONEWEB-0636,2023-043AH,2026-07-14T03:16:39.939168,13.15547545,.0001857,87.8990,253.8303,97.3174,262.8167,0,U,56077,999,15995,.15871E-3,.73E-6,0
ONEWEB-0637,2023-043AJ,2026-07-14T03:07:32.596896,13.15548316,.0002044,87.8979,253.8467,89.6390,270.4974,0,U,56078,999,15997,.4254E-4,.29E-6,0
ONEWEB-0647,2023-043AK,2026-07-14T04:50:13.081920,13.15549142,.0001998,87.8983,253.8445,100.2407,259.8949,0,U,56079,999,15997,-.13901E-3,-.4E-6,0
ONEWEB-0651,2023-043AL,2026-07-14T04:43:22.828800,13.15548109,.0001859,87.8984,253.8388,93.1387,266.9956,0,U,56080,999,16117,-.11116E-4,.9E-7,0
