ONEWEB-0548             
1 56050U 23043E   26195.10305650 -.00000061  00000+0 -19275-3 0  9996
2 56050  87.9078 223.4232 0001589  92.2587 267.8726 13.16594455162506
ONEWEB-0549             
1 56051U 23043F   26195.19015542  .00000001  00000+0 -28499-4 0  9996
2 56051  87.9235 238.6060 0002461 101.1843 258.9568 13.21826871161795
ONEWEB-0550             
1 56052U 23043G   26195.17670897  .00000022  00000+0  20824-4 0  9991
2 56052  87.9237 238.6067 0001869  99.3019 260.8327 13.21826690161793
ONEWEB-0551             
1 56053U 23043H   26195.15559096  .00000163  00000+0  39894-3 0  9999
2 56053  87.8985 253.8528 0002372 103.5183 256.6211 13.15547320159946
ONEWEB-0552             
1 56054U 23043J   26195.17164853  .00000036  00000+0  54459-4 0  9999
2 56054  87.9229 238.6128 0002088 100.7617 259.3752 13.21826222161795
ONEWEB-0553             
1 56055U 23043K   26195.16085501  .00000002  00000+0 -27514-4 0  9997
2 56055  87.9082 223.4161 0002064  83.5853 276.5513 13.16593419162527
ONEWEB-0554             
1 56056U 23043L   26195.14819147  .00000019  00000+0  16630-4 0  9991
2 56056  87.9081 223.4271 0001519  95.4113 264.7192 13.16594029162502
ONEWEB-0555             
1 56057U 23043M   26195.11018529 -.00000021  00000+0 -87585-4 0  9996
2 56057  87.9079 223.4239 0002223  78.0756 282.0624 13.16593743162502
ONEWEB-0557             
1 56058U 23043N   26195.12443547  .00000001  00000+0 -32203-4 0  9994
2 56058  87.9080 223.4308 0001374  56.5692 303.5570 13.16593746162500
ONEWEB-0558             
1 56059U 23043P   26195.16492657  .00000139  00000+0  30445-3 0  9991
2 56059  87.9236 238.6097 0002491  93.8273 266.3146 13.21826402161808
ONEWEB-0559             
1 56060U 23043Q   26195.15314988  .00000149  00000+0  33010-3 0  9994
2 56060  87.9236 238.6078 0002256  99.5092 260.6297 13.21824564161812
ONEWEB-0566             
1 56061U 23043R   26195.07072641  .00000118  00000+0  25374-3 0  9993
2 56061  87.9232 238.6226 0002384 102.4731 257.6669 13.21824315161789
ONEWEB-0568             
1 56062U 23043S   26195.14185344  .00000056  00000+0  11261-3 0  9998
2 56062  87.9080 223.4168 0002136  88.1904 271.9472 13.16595933162524
ONEWEB-0574             
1 56063U 23043T   26195.13970919  .00000059  00000+0  11224-3 0  9990
2 56063  87.9242 238.6127 0001881  92.4639 267.6711 13.21825715161838
ONEWEB-0575             
1 56064U 23043U   26195.13551484  .00000092  00000+0  20760-3 0  9995
2 56064  87.9076 223.4147 0001792  85.8631 274.2705 13.16595606162517
ONEWEB-0576             
1 56065U 23043V   26195.11650941 -.00000010  00000+0 -60261-4 0  9995
2 56065  87.9083 223.4266 0001889  88.3955 271.7393 13.16595342162503
ONEWEB-0577             
1 56066U 23043W   26195.12285172 -.00000008  00000+0 -53767-4 0  9997
2 56066  87.9081 223.4230 0001328  80.9229 279.2052 13.16594973162530
ONEWEB-0578             
1 56067U 23043X   26195.12625025  .00000100  00000+0  21030-3 0  9991
2 56067  87.9241 238.6115 0002130  88.0583 272.0795 13.21826404161798
ONEWEB-0579             
1 56068U 23043Y   26195.19351278 -.00004031  00000+0 -97921-2 0  9995
2 56068  87.9245 238.5964 0002034 102.2472 257.8890 13.21850539161819
ONEWEB-0581             
1 56069U 23043Z   26195.12918306  .00000022  00000+0  22703-4 0  9992
2 56069  87.9074 223.4327 0001492  90.0081 270.1221 13.16594625162501
ONEWEB-0609             
1 56070U 23043AA  26195.18173150  .00000005  00000+0 -19531-4 0  9997
2 56070  87.8987 253.8324 0002174  96.3786 263.7592 13.15548234159989
ONEWEB-0613             
1 56071U 23043AB  26195.17935858 -.00000057  00000+0 -18559-3 0  9994
2 56071  87.8985 253.8453 0002197 106.0037 254.1335 13.15547593159980
ONEWEB-0630             
1 56072U 23043AC  26195.17460050  .00000079  00000+0  17686-3 0  9994
2 56072  87.8994 253.8193 0002191 104.4398 255.6976 13.15550158159975
ONEWEB-0632             
1 56073U 23043AD  26195.16985626  .00000109  00000+0  25612-3 0  9997
2 56073  87.8988 253.8373 0001888  98.7567 261.3777 13.15548391159973
ONEWEB-0633             
1 56074U 23043AE  26195.16351771  .00000152  00000+0  36848-3 0  9997
2 56074  87.8996 253.8160 0002358 105.5946 254.5444 13.15548465159953
ONEWEB-0634             
1 56075U 23043AF  26195.14925760  .00000257  00000+0  64800-3 0  9996
2 56075  87.8985 253.8573 0002333  89.6137 270.5261 13.15549040159941
ONEWEB-0635             
1 56076U 23043AG  26195.14450125  .00000210  00000+0  52255-3 0  9995
2 56076  87.8994 253.8230 0001813  95.6649 264.4688 13.15548679159974
ONEWEB-0636             
1 56077U 23043AH  26195.13657337  .00000073  00000+0  15871-3 0  9999
2 56077  87.8990 253.8303 0001857  97.3174 262.8167 13.15547545159955
ONEWEB-0637             
1 56078U 23043AJ  26195.13023839  .00000029  00000+0  42540-4 0  9999
2 56078  87.8979 253.8467 0002044  89.6390 270.4974 13.15548316159977
ONEWEB-0647             
1 56079U 23043AK  26195.20154030 -.00000040  00000+0 -13901-3 0  9999
2 56079  87.8983 253.8445 0001998 100.2407 259.8949 13.15549142159976
ONEWEB-0651             
1 56080U 23043AL  26195.19679200  .00000009  00000+0 -11116-4 0  9991
2 56080  87.8984 253.8388 0001859  93.1387 266.9956 13.15548109161172
